[{"OBJECT_NAME":"HULIANWANG DIGUI-52","OBJECT_ID":"2025-168D","EPOCH":"2026-03-09T23:23:07.600128","MEAN_MOTION":13.29339053,"ECCENTRICITY":0.00096613,"INCLINATION":50.0046,"RA_OF_ASC_NODE":321.5793,"ARG_OF_PERICENTER":164.9384,"MEAN_ANOMALY":195.1777,"EPHEMERIS_TYPE":0,"CLASSIFICATION_TYPE":"U","NORAD_CAT_ID":65109,"ELEMENT_SET_NO":999,"REV_AT_EPOCH":2949,"BSTAR":0.00020261485,"MEAN_MOTION_DOT":-3.0e-7,"MEAN_MOTION_DDOT":0},{"OBJECT_NAME":"DELTA 1 DEB","OBJECT_ID":"1976-077Y","EPOCH":"2026-03-09T17:14:55.024224","MEAN_MOTION":12.92110998,"ECCENTRICITY":0.02489737,"INCLINATION":100.8089,"RA_OF_ASC_NODE":122.7444,"ARG_OF_PERICENTER":54.0899,"MEAN_ANOMALY":71.2985,"EPHEMERIS_TYPE":0,"CLASSIFICATION_TYPE":"U","NORAD_CAT_ID":10662,"ELEMENT_SET_NO":999,"REV_AT_EPOCH":32445,"BSTAR":0.0019914642,"MEAN_MOTION_DOT":5.73e-6,"MEAN_MOTION_DDOT":0}]
